[{"OBJECT_NAME":"STARLINK-3369","OBJECT_ID":"2022-005AQ","EPOCH":"2026-03-09T22:22:22.044576","MEAN_MOTION":15.18998951,"ECCENTRICITY":0.00032386,"INCLINATION":53.2137,"RA_OF_ASC_NODE":280.745,"ARG_OF_PERICENTER":175.5204,"MEAN_ANOMALY":184.5822,"EPHEMERIS_TYPE":0,"CLASSIFICATION_TYPE":"U","NORAD_CAT_ID":51142,"ELEMENT_SET_NO":999,"REV_AT_EPOCH":22901,"BSTAR":0.0020382455,"MEAN_MOTION_DOT":0.00043116,"MEAN_MOTION_DDOT":0},{"OBJECT_NAME":"CZ-4 DEB","OBJECT_ID":"2006-046J","EPOCH":"2026-03-09T18:53:15.937728","MEAN_MOTION":15.02015872,"ECCENTRICITY":0.00905092,"INCLINATION":97.813,"RA_OF_ASC_NODE":3.4349,"ARG_OF_PERICENTER":91.2796,"MEAN_ANOMALY":323.9331,"EPHEMERIS_TYPE":0,"CLASSIFICATION_TYPE":"U","NORAD_CAT_ID":35376,"ELEMENT_SET_NO":999,"REV_AT_EPOCH":2538,"BSTAR":0.001704414,"MEAN_MOTION_DOT":0.00024412,"MEAN_MOTION_DDOT":0}]
